METHANESAT              
1 59101U 24043D   25137.06631113  .00002230  00000+0  20786-3 0  9990
2 59101  97.7965 263.2977 0009788 249.6927 110.3242 14.95237927 65405
